TISAT 1                 
1 36799U 10035E   26068.75703561  .00024554  00000+0  91005-3 0  9996
2 36799  98.0645   6.8512 0001343 159.3030 200.8262 15.27628633852505
STARLINK-31671          
1 59516U 24073F   26068.10587874 -.00000535  00000+0 -98890-5 0  9997
2 59516  42.9998 321.5442 0003014 242.6241 117.4304 15.27573781106080
